{
  "type": "FeatureCollection",
  "features": [
    {
      "type": "Feature",
      "properties": {
        "norad_id": 35284,
        "name": "COSMOS 2251 DEB",
        "group": "cosmos-2251-debris",
        "lat": -24.34195360372,
        "lon": 64.11739650714641,
        "alt_km": 772.5072112275448,
        "timestamp": "2025-12-27T19:21:59.141033+00:00",
        "meta_object_name": "COSMOS 2251 DEB",
        "meta_object_id": "1993-036AJN",
        "meta_epoch": "2025-12-26T15:50:56.704128",
        "meta_mean_motion": 14.38332344,
        "meta_eccentricity": 0.0017235,
        "meta_inclination": 74.0481,
        "meta_ra_of_asc_node": 238.7931,
        "meta_arg_of_pericenter": 313.4165,
        "meta_mean_anomaly": 77.5805,
        "meta_ephemeris_type": 0,
        "meta_classification_type": "U",
        "meta_norad_cat_id": 35284,
        "meta_element_set_no": 999,
        "meta_rev_at_epoch": 65726,
        "meta_bstar": 0.00015481,
        "meta_mean_motion_dot": 4.46e-06,
        "meta_mean_motion_ddot": 0,
        "tle_line1": "1 35284U 93036AJN 25360.66037852  .00000446  00000+0  15481-3 0  9991",
        "tle_line2": "2 35284  74.0481 238.7931 0017235 313.4165  77.5805 14.38332344657265"
      },
      "geometry": {
        "type": "Point",
        "coordinates": [
          64.11739650714641,
          -24.34195360372
        ]
      }
    },
    {
      "type": "Feature",
      "properties": {
        "norad_id": 35287,
        "name": "COSMOS 2251 DEB",
        "group": "cosmos-2251-debris",
        "lat": -73.0778089054981,
        "lon": 178.1891195956978,
        "alt_km": 772.1636577387553,
        "timestamp": "2025-12-27T19:21:59.141042+00:00",
        "meta_object_name": "COSMOS 2251 DEB",
        "meta_object_id": "1993-036AJR",
        "meta_epoch": "2025-12-26T11:11:15.829152",
        "meta_mean_motion": 14.36387455,
        "meta_eccentricity": 0.0018158,
        "meta_inclination": 74.0297,
        "meta_ra_of_asc_node": 250.9133,
        "meta_arg_of_pericenter": 344.6887,
        "meta_mean_anomaly": 200.7795,
        "meta_ephemeris_type": 0,
        "meta_classification_type": "U",
        "meta_norad_cat_id": 35287,
        "meta_element_set_no": 999,
        "meta_rev_at_epoch": 87089,
        "meta_bstar": 0.00012553,
        "meta_mean_motion_dot": 3.42e-06,
        "meta_mean_motion_ddot": 0,
        "tle_line1": "1 35287U 93036AJR 25360.46615543  .00000342  00000+0  12553-3 0  9993",
        "tle_line2": "2 35287  74.0297 250.9133 0018158 344.6887 200.7795 14.36387455870890"
      },
      "geometry": {
        "type": "Point",
        "coordinates": [
          178.1891195956978,
          -73.0778089054981
        ]
      }
    },
    {
      "type": "Feature",
      "properties": {
        "norad_id": 35288,
        "name": "COSMOS 2251 DEB",
        "group": "cosmos-2251-debris",
        "lat": -25.27764316854167,
        "lon": 173.82443297793046,
        "alt_km": 653.3444396303612,
        "timestamp": "2025-12-27T19:21:59.141051+00:00",
        "meta_object_name": "COSMOS 2251 DEB",
        "meta_object_id": "1993-036AJS",
        "meta_epoch": "2025-12-27T05:19:15.653280",
        "meta_mean_motion": 14.65617392,
        "meta_eccentricity": 0.0038996,
        "meta_inclination": 73.9496,
        "meta_ra_of_asc_node": 347.1433,
        "meta_arg_of_pericenter": 218.6925,
        "meta_mean_anomaly": 141.1449,
        "meta_ephemeris_type": 0,
        "meta_classification_type": "U",
        "meta_norad_cat_id": 35288,
        "meta_element_set_no": 999,
        "meta_rev_at_epoch": 88090,
        "meta_bstar": 0.0012619,
        "meta_mean_motion_dot": 6.908e-05,
        "meta_mean_motion_ddot": 0,
        "tle_line1": "1 35288U 93036AJS 25361.22170895  .00006908  00000+0  12619-2 0  9991",
        "tle_line2": "2 35288  73.9496 347.1433 0038996 218.6925 141.1449 14.65617392880902"
      },
      "geometry": {
        "type": "Point",
        "coordinates": [
          173.82443297793046,
          -25.27764316854167
        ]
      }
    },
    {
      "type": "Feature",
      "properties": {
        "norad_id": 35290,
        "name": "COSMOS 2251 DEB",
        "group": "cosmos-2251-debris",
        "lat": -38.69881220452772,
        "lon": -137.04381791362854,
        "alt_km": 632.5365709436164,
        "timestamp": "2025-12-27T19:21:59.141060+00:00",
        "meta_object_name": "COSMOS 2251 DEB",
        "meta_object_id": "1993-036AJU",
        "meta_epoch": "2025-12-27T08:38:42.760896",
        "meta_mean_motion": 14.80763414,
        "meta_eccentricity": 9.34e-05,
        "meta_inclination": 74.0049,
        "meta_ra_of_asc_node": 30.5533,
        "meta_arg_of_pericenter": 175.136,
        "meta_mean_anomaly": 184.9826,
        "meta_ephemeris_type": 0,
        "meta_classification_type": "U",
        "meta_norad_cat_id": 35290,
        "meta_element_set_no": 999,
        "meta_rev_at_epoch": 88174,
        "meta_bstar": 0.0019416,
        "meta_mean_motion_dot": 0.00014959,
        "meta_mean_motion_ddot": 0,
        "tle_line1": "1 35290U 93036AJU 25361.36021714  .00014959  00000+0  19416-2 0  9991",
        "tle_line2": "2 35290  74.0049  30.5533 0000934 175.1360 184.9826 14.80763414881747"
      },
      "geometry": {
        "type": "Point",
        "coordinates": [
          -137.04381791362854,
          -38.69881220452772
        ]
      }
    },
    {
      "type": "Feature",
      "properties": {
        "norad_id": 35432,
        "name": "COSMOS 2251 DEB",
        "group": "cosmos-2251-debris",
        "lat": -68.55581109143016,
        "lon": -63.10125183850788,
        "alt_km": 491.0140676933888,
        "timestamp": "2025-12-27T19:21:59.141069+00:00",
        "meta_object_name": "COSMOS 2251 DEB",
        "meta_object_id": "1993-036AKA",
        "meta_epoch": "2025-12-26T16:55:32.526912",
        "meta_mean_motion": 15.24667745,
        "meta_eccentricity": 0.00123172,
        "meta_inclination": 74.0222,
        "meta_ra_of_asc_node": 346.0679,
        "meta_arg_of_pericenter": 316.4683,
        "meta_mean_anomaly": 43.5544,
        "meta_ephemeris_type": 0,
        "meta_classification_type": "U",
        "meta_norad_cat_id": 35432,
        "meta_element_set_no": 999,
        "meta_rev_at_epoch": 87716,
        "meta_bstar": 0.0017906457,
        "meta_mean_motion_dot": 0.00044578,
        "meta_mean_motion_ddot": 0,
        "tle_line1": "1 35432U 93036AKA 25360.70523758  .00044578  00000+0  17906-2 0  9993",
        "tle_line2": "2 35432  74.0222 346.0679 0012317 316.4683  43.5544 15.24667745877167"
      },
      "geometry": {
        "type": "Point",
        "coordinates": [
          -63.10125183850788,
          -68.55581109143016
        ]
      }
    },
    {
      "type": "Feature",
      "properties": {
        "norad_id": 35433,
        "name": "COSMOS 2251 DEB",
        "group": "cosmos-2251-debris",
        "lat": -51.49007116285164,
        "lon": -70.24672371730456,
        "alt_km": 771.9230700184635,
        "timestamp": "2025-12-27T19:21:59.141078+00:00",
        "meta_object_name": "COSMOS 2251 DEB",
        "meta_object_id": "1993-036AKB",
        "meta_epoch": "2025-12-27T04:50:47.078592",
        "meta_mean_motion": 14.34772749,
        "meta_eccentricity": 0.0026291,
        "meta_inclination": 74.0354,
        "meta_ra_of_asc_node": 311.9463,
        "meta_arg_of_pericenter": 3.1216,
        "meta_mean_anomaly": 59.0344,
        "meta_ephemeris_type": 0,
        "meta_classification_type": "U",
        "meta_norad_cat_id": 35433,
        "meta_element_set_no": 999,
        "meta_rev_at_epoch": 86788,
        "meta_bstar": 0.00037645305,
        "meta_mean_motion_dot": 1.045e-05,
        "meta_mean_motion_ddot": 0,
        "tle_line1": "1 35433U 93036AKB 25361.20193378  .00001045  00000+0  37645-3 0  9996",
        "tle_line2": "2 35433  74.0354 311.9463 0026291   3.1216  59.0344 14.34772749867883"
      },
      "geometry": {
        "type": "Point",
        "coordinates": [
          -70.24672371730456,
          -51.49007116285164
        ]
      }
    },
    {
      "type": "Feature",
      "properties": {
        "norad_id": 35434,
        "name": "COSMOS 2251 DEB",
        "group": "cosmos-2251-debris",
        "lat": 74.0291818325824,
        "lon": -83.48468784205505,
        "alt_km": 858.8160361854634,
        "timestamp": "2025-12-27T19:21:59.141087+00:00",
        "meta_object_name": "COSMOS 2251 DEB",
        "meta_object_id": "1993-036AKC",
        "meta_epoch": "2025-12-23T05:28:40.876896",
        "meta_mean_motion": 14.25716012,
        "meta_eccentricity": 0.00872798,
        "meta_inclination": 74.0389,
        "meta_ra_of_asc_node": 194.6941,
        "meta_arg_of_pericenter": 263.2384,
        "meta_mean_anomaly": 95.8825,
        "meta_ephemeris_type": 0,
        "meta_classification_type": "U",
        "meta_norad_cat_id": 35434,
        "meta_element_set_no": 999,
        "meta_rev_at_epoch": 86267,
        "meta_bstar": 0.00051853095,
        "meta_mean_motion_dot": 1.255e-05,
        "meta_mean_motion_ddot": 0,
        "tle_line1": "1 35434U 93036AKC 25357.22825089  .00001255  00000+0  51853-3 0  9995",
        "tle_line2": "2 35434  74.0389 194.6941 0087279 263.2384  95.8825 14.25716012862672"
      },
      "geometry": {
        "type": "Point",
        "coordinates": [
          -83.48468784205505,
          74.0291818325824
        ]
      }
    }
  ]
}